[{"OBJECT_NAME":"STARLINK-35071","OBJECT_ID":"2025-195V","EPOCH":"2026-03-09T21:39:41.323968","MEAN_MOTION":15.30209042,"ECCENTRICITY":8.214e-5,"INCLINATION":53.1599,"RA_OF_ASC_NODE":257.3746,"ARG_OF_PERICENTER":78.6554,"MEAN_ANOMALY":281.4539,"EPHEMERIS_TYPE":0,"CLASSIFICATION_TYPE":"U","NORAD_CAT_ID":65477,"ELEMENT_SET_NO":999,"REV_AT_EPOCH":3000,"BSTAR":0.001273544,"MEAN_MOTION_DOT":0.00037561,"MEAN_MOTION_DDOT":0},{"OBJECT_NAME":"OBJECT BD","OBJECT_ID":"2025-313BD","EPOCH":"2026-03-09T15:06:44.992224","MEAN_MOTION":15.3000236,"ECCENTRICITY":0.00072867,"INCLINATION":97.397,"RA_OF_ASC_NODE":145.285,"ARG_OF_PERICENTER":333.4514,"MEAN_ANOMALY":26.6352,"EPHEMERIS_TYPE":0,"CLASSIFICATION_TYPE":"U","NORAD_CAT_ID":67299,"ELEMENT_SET_NO":999,"REV_AT_EPOCH":1083,"BSTAR":0.0027633805,"MEAN_MOTION_DOT":0.0008101,"MEAN_MOTION_DDOT":0}]
